NORAD_CAT_ID,OBJECT_NAME,OBJECT_TYPE,EPOCH,MEAN_MOTION,ECCENTRICITY,INCLINATION,RA_OF_ASC_NODE,ARG_OF_PERICENTER,MEAN_ANOMALY,BSTAR,MEAN_MOTION_DOT,MEAN_MOTION_DDOT,TLE_LINE0,TLE_LINE1,TLE_LINE2,SEMIMAJOR_AXIS,PERIOD,APOGEE,PERIGEE,DECAYED
56804.0,STARLINK-6069,PAYLOAD,2024-03-30 08:29:58,14.98328477,0.0002807,69.9998,312.8742,263.7679,96.316,-6.2701e-05,-8.41e-06,0.0,0 STARLINK-6069,1 56804U 23078AP  24090.35415457 -.00000841  00000-0 -62701-4 0  9997,2 56804  69.9998 312.8742 0002807 263.7679  96.3160 14.98328477 47592,6950.198,96.107,574.014,570.112,0.0
56804.0,STARLINK-6069,PAYLOAD,2024-03-30 21:19:03,14.98323713,0.0003047,69.9995,311.526,272.0446,88.0364,5.3506e-05,5.45e-06,0.0,0 STARLINK-6069,1 56804U 23078AP  24090.88823531  .00000545  00000-0  53506-4 0  9993,2 56804  69.9995 311.5260 0003047 272.0446  88.0364 14.98323713 47268,6950.212,96.107,574.195,569.96,0.0
56804.0,STARLINK-6069,PAYLOAD,2024-03-30 22:55:11,14.98323165,0.0003055,69.9995,311.3576,272.0402,88.0407,4.5962e-05,4.55e-06,0.0,0 STARLINK-6069,1 56804U 23078AP  24090.95499610  .00000455  00000-0  45962-4 0  9995,2 56804  69.9995 311.3576 0003055 272.0402  88.0407 14.98323165 47682,6950.214,96.107,574.202,569.956,0.0
56804.0,STARLINK-6069,PAYLOAD,2024-03-31 13:20:24,14.98328989,0.0003072,69.9997,309.8425,272.308,87.7727,3.1533e-05,2.83e-06,0.0,0 STARLINK-6069,1 56804U 23078AP  24091.55583382  .00000283  00000-0  31533-4 0  9990,2 56804  69.9997 309.8425 0003072 272.3080  87.7727 14.98328989 47773,6950.196,96.107,574.196,569.926,0.0
56804.0,STARLINK-6069,PAYLOAD,2024-03-31 21:21:04,14.98331893,0.0003095,69.9992,309.001,272.1283,87.9522,2.4247e-05,1.96e-06,0.0,0 STARLINK-6069,1 56804U 23078AP  24091.88963212  .00000196  00000-0  24247-4 0  9997,2 56804  69.9992 309.0010 0003095 272.1283  87.9522 14.98331893 47412,6950.187,96.107,574.203,569.901,0.0
56804.0,STARLINK-6069,PAYLOAD,2024-04-01 13:22:25,14.98327348,0.0003122,69.9987,307.3177,271.6762,88.4039,-2.9463e-06,-1.28e-06,0.0,0 STARLINK-6069,1 56804U 23078AP  24092.55723517 -.00000128  00000-0 -29463-5 0  9997,2 56804  69.9987 307.3177 0003122 271.6762  88.4039 14.98327348 47923,6950.201,96.107,574.236,569.896,0.0
56804.0,STARLINK-6069,PAYLOAD,2024-04-01 21:23:05,14.98330427,0.0003143,69.9985,306.476,271.6224,88.4575,3.4583e-06,-5.2e-07,0.0,0 STARLINK-6069,1 56804U 23078AP  24092.89103328 -.00000052  00000-0  34583-5 0  9990,2 56804  69.9985 306.4760 0003143 271.6224  88.4575 14.98330427 47562,6950.192,96.107,574.241,569.872,0.0
56804.0,STARLINK-6069,PAYLOAD,2024-04-02 15:00:30,14.98370988,0.0003499,69.9985,304.6241,270.4318,89.6441,0.00044009,5.168e-05,0.0,0 STARLINK-6069,1 56804U 23078AP  24093.62535666  .00005168  00000-0  44009-3 0  9990,2 56804  69.9985 304.6241 0003499 270.4318  89.6441 14.98370988 48080,6950.066,96.104,574.363,569.499,0.0
56804.0,STARLINK-6069,PAYLOAD,2024-04-02 16:37:55,14.97423509,0.0001784,69.9985,304.4587,24.0946,336.0296,-0.010052,-0.00115338,0.0,0 STARLINK-6069,1 56804U 23078AP  24093.69300254 -.00115338  00000-0 -10052-1 0  9992,2 56804  69.9985 304.4587 0001784  24.0946 336.0296 14.97423509 47685,6952.998,96.165,576.103,573.622,0.0
56804.0,STARLINK-6069,PAYLOAD,2024-04-03 06:00:00,14.98346371,0.0003009,69.9999,303.0487,270.7996,217.5135,-0.0033502,-0.00039858,0.0,0 STARLINK-6069,1 56804U 23078AP  24094.25001157 -.00039858  00000-0 -33502-2 0  9993,2 56804  69.9999 303.0487 0003009 270.7996 217.5135 14.98346371 47767,6950.142,96.106,574.099,569.916,0.0
56804.0,STARLINK-6069,PAYLOAD,2024-04-03 13:26:27,14.98323462,0.0003167,69.9981,302.2671,270.4071,89.6725,-0.00013344,-1.685e-05,0.0,0 STARLINK-6069,1 56804U 23078AP  24094.56003943 -.00001685  00000-0 -13344-3 0  9992,2 56804  69.9981 302.2671 0003167 270.4071  89.6725 14.98323462 48221,6950.213,96.107,574.279,569.877,0.0
56804.0,STARLINK-6069,PAYLOAD,2024-04-03 19:50:58,14.98331453,0.0003092,69.9978,301.5941,269.5149,90.5656,2.2779e-05,1.79e-06,0.0,0 STARLINK-6069,1 56804U 23078AP  24094.82706999  .00000179  00000-0  22779-4 0  9990,2 56804  69.9978 301.5941 0003092 269.5149  90.5656 14.98331453 47852,6950.188,96.107,574.202,569.904,0.0
56804.0,STARLINK-6069,PAYLOAD,2024-04-04 15:04:34,14.98345052,0.0003209,69.998,299.5744,264.3764,95.7029,5.0092e-05,5.05e-06,0.0,0 STARLINK-6069,1 56804U 23078AP  24095.62818022  .00000505  00000-0  50092-4 0  9992,2 56804  69.9980 299.5744 0003209 264.3764  95.7029 14.98345052 48388,6950.146,96.106,574.242,569.781,0.0
56804.0,STARLINK-6069,PAYLOAD,2024-04-04 19:52:59,14.98332832,0.0003336,69.9981,299.0691,272.1824,87.8953,-6.8761e-05,-9.13e-06,0.0,0 STARLINK-6069,1 56804U 23078AP  24095.82847058 -.00000913  00000-0 -68761-4 0  9992,2 56804  69.9981 299.0691 0003336 272.1824  87.8953 14.98332832 48009,6950.184,96.107,574.368,569.731,0.0
56804.0,STARLINK-6069,PAYLOAD,2024-04-04 21:29:07,14.983286,0.0003359,69.9982,298.9005,274.9746,85.1029,1.0486e-05,3.2e-07,0.0,0 STARLINK-6069,1 56804U 23078AP  24095.89523138  .00000032  00000-0  10486-4 0  9990,2 56804  69.9982 298.9005 0003359 274.9746  85.1029 14.98328600 48424,6950.197,96.107,574.397,569.728,0.0
56804.0,STARLINK-6069,PAYLOAD,2024-04-05 13:30:28,14.98332522,0.0003071,69.9979,297.2171,270.0736,90.0071,-4.3249e-06,-1.45e-06,0.0,0 STARLINK-6069,1 56804U 23078AP  24096.56282863 -.00000145  00000-0 -43249-5 0  9993,2 56804  69.9979 297.2171 0003071 270.0736  90.0071 14.98332522 48524,6950.185,96.107,574.184,569.916,0.0
56804.0,STARLINK-6069,PAYLOAD,2024-04-05 19:55:00,14.98327895,0.0003408,69.9979,296.5437,272.0289,88.048,-3.9126e-05,-5.6e-06,0.0,0 STARLINK-6069,1 56804U 23078AP  24096.82987195 -.00000560  00000-0 -39126-4 0  9991,2 56804  69.9979 296.5437 0003408 272.0289  88.0480 14.98327895 48157,6950.199,96.107,574.433,569.696,0.0
56804.0,STARLINK-6069,PAYLOAD,2024-04-05 21:31:09,14.98329493,0.0002934,69.9978,296.3753,267.9652,92.1171,-9.8501e-05,-1.268e-05,0.0,0 STARLINK-6069,1 56804U 23078AP  24096.89663278 -.00001268  00000-0 -98501-4 0  9999,2 56804  69.9978 296.3753 0002934 267.9652  92.1171 14.98329493 48570,6950.194,96.107,574.099,570.02,0.0
56804.0,STARLINK-6069,PAYLOAD,2024-04-06 14:00:01,14.98347171,0.0003185,69.9996,294.6436,266.9816,196.1547,-0.00058664,-7.089e-05,0.0,0 STARLINK-6069,1 56804U 23078AP  24097.58334491 -.00007089  00000-0 -58664-3 0  9990,2 56804  69.9996 294.6436 0003185 266.9816 196.1547 14.98347171  5690,6950.14,96.106,574.218,569.791,0.0
56804.0,STARLINK-6069,PAYLOAD,2024-04-06 22:00:00,14.98323556,0.0003139,69.9994,293.803,273.2234,187.4191,0.0012016,0.00014271,0.0,0 STARLINK-6069,1 56804U 23078AP  24097.91667824  .00014271  00000-0  12016-2 0  9995,2 56804  69.9994 293.8030 0003139 273.2234 187.4191 14.98323556 48318,6950.213,96.107,574.259,569.896,0.0
56804.0,STARLINK-6069,PAYLOAD,2024-04-07 11:58:22,14.98325318,0.0002997,69.9977,292.3347,269.0957,90.9858,7.2142e-05,7.68e-06,0.0,0 STARLINK-6069,1 56804U 23078AP  24098.49887101  .00000768  00000-0  72142-4 0  9995,2 56804  69.9977 292.3347 0002997 269.0957  90.9858 14.98325318 48406,6950.207,96.107,574.155,569.989,0.0
56804.0,STARLINK-6069,PAYLOAD,2024-04-07 19:59:02,14.98364739,0.0002934,69.9977,291.493,267.219,92.8633,-0.00058008,-7.014e-05,0.0,0 STARLINK-6069,1 56804U 23078AP  24098.83266289 -.00007014  00000-0 -58008-3 0  9998,2 56804  69.9977 291.4930 0002934 267.2190  92.8633 14.98364739 48451,6950.085,96.105,573.99,569.911,0.0
56804.0,STARLINK-6069,PAYLOAD,2024-04-07 21:35:10,14.98362365,0.0002974,69.9977,291.3246,268.8547,91.2271,-0.00053126,-6.431e-05,0.0,0 STARLINK-6069,1 56804U 23078AP  24098.89942221 -.00006431  00000-0 -53126-3 0  9999,2 56804  69.9977 291.3246 0002974 268.8547  91.2271 14.98362365 48877,6950.093,96.105,574.025,569.891,0.0
56804.0,STARLINK-6069,PAYLOAD,2024-04-07 23:11:18,14.98334542,0.0003077,69.9978,291.1563,270.4386,89.642,-3.359e-05,-4.94e-06,0.0,0 STARLINK-6069,1 56804U 23078AP  24098.96618734 -.00000494  00000-0 -33590-4 0  9993,2 56804  69.9978 291.1563 0003077 270.4386  89.6420 14.98334542 48472,6950.179,96.107,574.182,569.905,0.0
56804.0,STARLINK-6069,PAYLOAD,2024-04-08 05:35:50,14.98329012,0.0002962,69.9979,290.4829,270.2974,89.7846,4.6741e-05,4.65e-06,0.0,0 STARLINK-6069,1 56804U 23078AP  24099.23322906  .00000465  00000-0  46741-4 0  9995,2 56804  69.9979 290.4829 0002962 270.2974  89.7846 14.98329012 48922,6950.196,96.107,574.12,570.002,0.0
56804.0,STARLINK-6069,PAYLOAD,2024-04-08 23:13:19,14.98333094,0.0003005,69.9979,288.6312,270.1094,89.9721,-1.2337e-05,-2.4e-06,0.0,0 STARLINK-6069,1 56804U 23078AP  24099.96758719 -.00000240  00000-0 -12337-4 0  9997,2 56804  69.9979 288.6312 0003005 270.1094  89.9721 14.98333094 49031,6950.183,96.107,574.137,569.96,0.0
56804.0,STARLINK-6069,PAYLOAD,2024-04-09 12:02:24,14.98329895,0.0002933,69.998,287.2845,270.4898,89.5925,-1.3563e-05,-2.55e-06,0.0,0 STARLINK-6069,1 56804U 23078AP  24100.50166869 -.00000255  00000-0 -13563-4 0  9997,2 56804  69.9980 287.2845 0002933 270.4898  89.5925 14.98329895 49118,6950.193,96.107,574.097,570.02,0.0
56804.0,STARLINK-6069,PAYLOAD,2024-04-09 18:26:56,14.98330223,0.0002938,69.998,286.6111,270.9834,89.0989,-9.9535e-06,-2.12e-06,0.0,0 STARLINK-6069,1 56804U 23078AP  24100.76870820 -.00000212  00000-0 -99535-5 0  9991,2 56804  69.9980 286.6111 0002938 270.9834  89.0989 14.98330223 49153,6950.192,96.107,574.099,570.015,0.0
56804.0,STARLINK-6069,PAYLOAD,2024-04-10 05:39:53,14.98327526,0.0002975,69.998,285.4327,270.5355,89.5464,-3.5762e-05,-5.2e-06,0.0,0 STARLINK-6069,1 56804U 23078AP  24101.23603061 -.00000520  00000-0 -35762-4 0  9998,2 56804  69.9980 285.4327 0002975 270.5355  89.5464 14.98327526 48811,6950.201,96.107,574.133,569.998,0.0
56804.0,STARLINK-6069,PAYLOAD,2024-04-10 21:41:13,14.98326185,0.0003041,69.9989,283.7496,270.2588,89.8223,-3.9812e-05,-5.68e-06,0.0,0 STARLINK-6069,1 56804U 23078AP  24101.90363203 -.00000568  00000-0 -39812-4 0  9995,2 56804  69.9989 283.7496 0003041 270.2588  89.8223 14.98326185 49321,6950.205,96.107,574.183,569.956,0.0
